[{"OBJECT_NAME":"GEESAT-5 08","OBJECT_ID":"2025-201H","EPOCH":"2026-03-09T15:40:14.033280","MEAN_MOTION":14.82473917,"ECCENTRICITY":0.00022548,"INCLINATION":49.9778,"RA_OF_ASC_NODE":136.434,"ARG_OF_PERICENTER":280.4345,"MEAN_ANOMALY":79.6338,"EPHEMERIS_TYPE":0,"CLASSIFICATION_TYPE":"U","NORAD_CAT_ID":65557,"ELEMENT_SET_NO":999,"REV_AT_EPOCH":2708,"BSTAR":0.00033377035,"MEAN_MOTION_DOT":2.484e-5,"MEAN_MOTION_DDOT":0},{"OBJECT_NAME":"CZ-6A DEB","OBJECT_ID":"2022-151DD","EPOCH":"2026-03-09T17:22:01.111008","MEAN_MOTION":14.86690016,"ECCENTRICITY":0.00876761,"INCLINATION":98.4579,"RA_OF_ASC_NODE":137.3593,"ARG_OF_PERICENTER":94.708,"MEAN_ANOMALY":266.4154,"EPHEMERIS_TYPE":0,"CLASSIFICATION_TYPE":"U","NORAD_CAT_ID":54358,"ELEMENT_SET_NO":999,"REV_AT_EPOCH":17717,"BSTAR":0.0022043381,"MEAN_MOTION_DOT":0.00021004,"MEAN_MOTION_DDOT":0}]
